NORAD_CAT_ID,OBJECT_NAME,OBJECT_TYPE,EPOCH,MEAN_MOTION,ECCENTRICITY,INCLINATION,RA_OF_ASC_NODE,ARG_OF_PERICENTER,MEAN_ANOMALY,BSTAR,MEAN_MOTION_DOT,MEAN_MOTION_DDOT,TLE_LINE0,TLE_LINE1,TLE_LINE2,SEMIMAJOR_AXIS,PERIOD,APOGEE,PERIGEE,DECAYED
51854.0,STARLINK-3541,PAYLOAD,2024-02-17 16:28:41,15.08844483,0.0001555,53.2185,150.502,101.4374,258.6793,0.00010504,1.384e-05,0.0,0 STARLINK-3541,1 51854U 22022C   24048.68659198  .00001384  00000-0  10504-3 0  9990,2 51854  53.2185 150.5020 0001555 101.4374 258.6793 15.08844483109643,6917.867,95.437,540.807,538.656,0.0
51854.0,STARLINK-3541,PAYLOAD,2024-02-18 13:08:42,15.08850571,0.0001499,53.2162,146.6385,93.0936,267.0228,8.8901e-05,1.128e-05,0.0,0 STARLINK-3541,1 51854U 22022C   24049.54770895  .00001128  00000-0  88901-4 0  9997,2 51854  53.2162 146.6385 0001499  93.0936 267.0228 15.08850571109771,6917.848,95.437,540.75,538.676,0.0
51854.0,STARLINK-3541,PAYLOAD,2024-02-19 11:24:06,15.08840669,0.000155,53.2172,142.4769,94.8164,265.3005,8.4195e-05,1.052e-05,0.0,0 STARLINK-3541,1 51854U 22022C   24050.47507544  .00001052  00000-0  84195-4 0  9997,2 51854  53.2172 142.4769 0001550  94.8164 265.3005 15.08840669109919,6917.878,95.438,540.816,538.671,0.0
51854.0,STARLINK-3541,PAYLOAD,2024-02-19 12:59:29,15.08843008,0.0001527,53.2171,142.1743,93.7813,266.3354,0.0001149,1.541e-05,0.0,0 STARLINK-3541,1 51854U 22022C   24050.54131365  .00001541  00000-0  11490-3 0  9999,2 51854  53.2171 142.1743 0001527  93.7813 266.3354 15.08843008109929,6917.871,95.437,540.793,538.68,0.0
51854.0,STARLINK-3541,PAYLOAD,2024-02-19 22:31:48,15.0883966,0.000149,53.217,140.3945,88.2281,271.8881,2.4954e-05,1.09e-06,0.0,0 STARLINK-3541,1 51854U 22022C   24050.93875542  .00000109  00000-0  24954-4 0  9993,2 51854  53.2170 140.3945 0001490  88.2281 271.8881 15.08839660109980,6917.881,95.438,540.777,538.716,0.0
51854.0,STARLINK-3541,PAYLOAD,2024-02-20 12:50:17,15.08831407,0.0001525,53.2196,137.7237,96.6171,263.4994,-1.9573e-05,-5.99e-06,0.0,0 STARLINK-3541,1 51854U 22022C   24051.53492703 -.00000599  00000-0 -19573-4 0  9990,2 51854  53.2196 137.7237 0001525  96.6171 263.4994 15.08831407110077,6917.907,95.438,540.827,538.717,0.0
51854.0,STARLINK-3541,PAYLOAD,2024-02-21 04:44:08,15.08839355,0.0001666,53.2189,134.7467,108.8622,251.2551,7.1439e-05,8.49e-06,0.0,0 STARLINK-3541,1 51854U 22022C   24052.19732154  .00000849  00000-0  71439-4 0  9995,2 51854  53.2189 134.7467 0001666 108.8622 251.2551 15.08839355110179,6917.882,95.438,540.9,538.595,0.0
51854.0,STARLINK-3541,PAYLOAD,2024-02-21 14:16:26,15.08848848,0.0001512,53.2171,132.962,95.4534,264.6631,0.00021244,3.095e-05,0.0,0 STARLINK-3541,1 51854U 22022C   24052.59475565  .00003095  00000-0  21244-3 0  9993,2 51854  53.2171 132.9620 0001512  95.4534 264.6631 15.08848848110235,6917.853,95.437,540.764,538.672,0.0
51854.0,STARLINK-3541,PAYLOAD,2024-02-21 22:13:23,15.08838712,0.0001814,53.2176,131.4722,82.8439,277.2759,5.8252e-05,6.39e-06,0.0,0 STARLINK-3541,1 51854U 22022C   24052.92596106  .00000639  00000-0  58252-4 0  9996,2 51854  53.2176 131.4722 0001814  82.8439 277.2759 15.08838712110281,6917.884,95.438,541.004,538.494,0.0
51854.0,STARLINK-3541,PAYLOAD,2024-02-22 12:31:51,15.08837412,0.0001598,53.2169,128.7991,89.5555,270.562,0.00010391,1.366e-05,0.0,0 STARLINK-3541,1 51854U 22022C   24053.52212440  .00001366  00000-0  10391-3 0  9998,2 51854  53.2169 128.7991 0001598  89.5555 270.5620 15.08837412110371,6917.888,95.438,540.859,538.648,0.0
51854.0,STARLINK-3541,PAYLOAD,2024-02-23 04:25:43,15.08837566,0.0001666,53.2169,125.8255,90.4117,269.7066,-3.0917e-06,-3.37e-06,0.0,0 STARLINK-3541,1 51854U 22022C   24054.18452610 -.00000337  00000-0 -30917-5 0  9993,2 51854  53.2169 125.8255 0001666  90.4117 269.7066 15.08837566110478,6917.888,95.438,540.905,538.6,0.0
51854.0,STARLINK-3541,PAYLOAD,2024-02-23 12:22:38,15.08840615,0.0001542,53.2169,124.3373,89.9805,270.1364,3.5067e-05,2.7e-06,0.0,0 STARLINK-3541,1 51854U 22022C   24054.51572811  .00000270  00000-0  35067-4 0  9990,2 51854  53.2169 124.3373 0001542  89.9805 270.1364 15.08840615110525,6917.879,95.438,540.81,538.677,0.0
51854.0,STARLINK-3541,PAYLOAD,2024-02-23 21:54:57,15.0884883,0.0001646,53.2172,122.5523,76.4052,283.7123,-6.256e-06,-3.88e-06,0.0,0 STARLINK-3541,1 51854U 22022C   24054.91316313 -.00000388  00000-0 -62560-5 0  9998,2 51854  53.2172 122.5523 0001646  76.4052 283.7123 15.08848830110582,6917.853,95.437,540.857,538.58,0.0
51854.0,STARLINK-3541,PAYLOAD,2024-02-24 10:38:02,15.08848466,0.0001541,53.2162,120.1737,85.7515,274.3653,0.00025869,3.832e-05,0.0,0 STARLINK-3541,1 51854U 22022C   24055.44308362  .00003832  00000-0  25869-3 0  9996,2 51854  53.2162 120.1737 0001541  85.7515 274.3653 15.08848466110661,6917.855,95.437,540.786,538.653,0.0
51854.0,STARLINK-3541,PAYLOAD,2024-02-25 10:28:49,15.08851058,0.0001513,53.2155,115.7116,88.8756,271.2409,0.00018971,2.733e-05,0.0,0 STARLINK-3541,1 51854U 22022C   24056.43668039  .00002733  00000-0  18971-3 0  9991,2 51854  53.2155 115.7116 0001513  88.8756 271.2409 15.08851058110817,6917.847,95.437,540.758,538.665,0.0
51854.0,STARLINK-3541,PAYLOAD,2024-02-25 13:39:35,15.08854012,0.0001404,53.2148,115.1174,84.563,275.5522,0.00025189,3.725e-05,0.0,0 STARLINK-3541,1 51854U 22022C   24056.56915820  .00003725  00000-0  25189-3 0  9999,2 51854  53.2148 115.1174 0001404  84.5630 275.5522 15.08854012110838,6917.838,95.437,540.674,538.731,0.0
51854.0,STARLINK-3541,PAYLOAD,2024-02-26 10:19:36,15.0883845,0.0001575,53.2164,111.2517,95.2341,264.8831,-4.1821e-05,-9.54e-06,0.0,0 STARLINK-3541,1 51854U 22022C   24057.43028744 -.00000954  00000-0 -41821-4 0  9991,2 51854  53.2164 111.2517 0001575  95.2341 264.8831 15.08838450110967,6917.885,95.438,540.84,538.661,0.0
51854.0,STARLINK-3541,PAYLOAD,2024-02-27 10:10:23,15.08845094,0.0001507,53.2161,106.7928,94.9376,265.1788,9.8998e-05,1.288e-05,0.0,0 STARLINK-3541,1 51854U 22022C   24058.42388556  .00001288  00000-0  98998-4 0  9997,2 51854  53.2161 106.7928 0001507  94.9376 265.1788 15.08845094111113,6917.865,95.437,540.772,538.687,0.0
51854.0,STARLINK-3541,PAYLOAD,2024-02-27 19:42:42,15.08843708,0.000151,53.2158,105.0082,93.3707,266.7458,4.864e-05,4.86e-06,0.0,0 STARLINK-3541,1 51854U 22022C   24058.82132607  .00000486  00000-0  48640-4 0  9993,2 51854  53.2158 105.0082 0001510  93.3707 266.7458 15.08843708111174,6917.869,95.437,540.779,538.689,0.0
51854.0,STARLINK-3541,PAYLOAD,2024-02-28 10:01:10,15.08844338,0.0001548,53.2157,102.3324,100.3032,259.8134,0.00022225,3.251e-05,0.0,0 STARLINK-3541,1 51854U 22022C   24059.41748703  .00003251  00000-0  22225-3 0  9992,2 51854  53.2157 102.3324 0001548 100.3032 259.8134 15.08844338111267,6917.867,95.437,540.803,538.661,0.0
51854.0,STARLINK-3541,PAYLOAD,2024-02-28 19:33:29,15.08844247,0.0001552,53.2158,100.548,98.208,261.9088,0.00016544,2.346e-05,0.0,0 STARLINK-3541,1 51854U 22022C   24059.81492617  .00002346  00000-0  16544-3 0  9997,2 51854  53.2158 100.5480 0001552  98.2080 261.9088 15.08844247111322,6917.867,95.437,540.806,538.659,0.0
51854.0,STARLINK-3541,PAYLOAD,2024-02-29 11:27:21,15.08840946,0.0001607,53.2175,97.5748,99.6459,260.4715,5.9919e-05,6.66e-06,0.0,0 STARLINK-3541,1 51854U 22022C   24060.47733136  .00000666  00000-0  59919-4 0  9992,2 51854  53.2175  97.5748 0001607  99.6459 260.4715 15.08840946111423,6917.877,95.437,540.854,538.631,0.0
51854.0,STARLINK-3541,PAYLOAD,2024-02-29 19:24:17,15.08838085,0.0001636,53.2173,96.0873,91.9418,268.1761,4.7729e-05,4.72e-06,0.0,0 STARLINK-3541,1 51854U 22022C   24060.80853381  .00000472  00000-0  47729-4 0  9995,2 51854  53.2173  96.0873 0001636  91.9418 268.1761 15.08838085111478,6917.886,95.438,540.883,538.619,0.0
51854.0,STARLINK-3541,PAYLOAD,2024-03-01 08:07:22,15.0883991,0.0001829,53.2184,93.7089,102.4259,257.6938,4.8023e-05,4.76e-06,0.0,0 STARLINK-3541,1 51854U 22022C   24061.33845335  .00000476  00000-0  48023-4 0  9996,2 51854  53.2184  93.7089 0001829 102.4259 257.6938 15.08839910111554,6917.881,95.438,541.011,538.48,0.0
51854.0,STARLINK-3541,PAYLOAD,2024-03-01 19:15:04,15.08841022,0.0001609,53.2171,91.625,88.6991,271.4186,-5.8366e-06,-3.81e-06,0.0,0 STARLINK-3541,1 51854U 22022C   24061.80213373 -.00000381  00000-0 -58366-5 0  9998,2 51854  53.2171  91.6250 0001609  88.6991 271.4186 15.08841022111625,6917.877,95.437,540.855,538.629,0.0
51854.0,STARLINK-3541,PAYLOAD,2024-03-02 09:33:32,15.08841498,0.0001631,53.217,88.9488,85.2042,274.9136,9.2635e-05,1.187e-05,0.0,0 STARLINK-3541,1 51854U 22022C   24062.39829330  .00001187  00000-0  92635-4 0  9998,2 51854  53.2170  88.9488 0001631  85.2042 274.9136 15.08841498111711,6917.876,95.437,540.869,538.613,0.0
51854.0,STARLINK-3541,PAYLOAD,2024-03-03 01:27:24,15.08834907,0.0001568,53.2167,85.9749,87.3494,272.7678,0.00022496,3.294e-05,0.0,0 STARLINK-3541,1 51854U 22022C   24063.06069465  .00003294  00000-0  22496-3 0  9996,2 51854  53.2167  85.9749 0001568  87.3494 272.7678 15.08834907111812,6917.896,95.438,540.846,538.676,0.0
51854.0,STARLINK-3541,PAYLOAD,2024-03-03 07:48:55,15.08846488,0.0001382,53.2159,84.7867,86.0566,274.0584,0.00019462,2.811e-05,0.0,0 STARLINK-3541,1 51854U 22022C   24063.32564781  .00002811  00000-0  19462-3 0  9999,2 51854  53.2159  84.7867 0001382  86.0566 274.0584 15.08846488111853,6917.861,95.437,540.682,538.77,0.0
51854.0,STARLINK-3541,PAYLOAD,2024-03-04 07:39:43,15.08840072,0.0001523,53.2162,80.3263,90.9513,269.1654,4.2547e-06,-2.2e-06,0.0,0 STARLINK-3541,1 51854U 22022C   24064.31925122 -.00000220  00000-0  42547-5 0  9994,2 51854  53.2162  80.3263 0001523  90.9513 269.1654 15.08840072112006,6917.88,95.438,540.799,538.692,0.0
51854.0,STARLINK-3541,PAYLOAD,2024-03-05 07:30:31,15.08829325,0.0001569,53.2169,75.8645,92.876,267.2411,-0.00013564,-2.445e-05,0.0,0 STARLINK-3541,1 51854U 22022C   24065.31286147 -.00002445  00000-0 -13564-3 0  9999,2 51854  53.2169  75.8645 0001569  92.8760 267.2411 15.08829325112155,6917.913,95.438,540.863,538.693,0.0
